{"type":"FeatureCollection","name":"Capture the Hood — Toronto Hoods","attribution":"Contains information licensed under the Open Government Licence – Toronto.","source":"City of Toronto Open Data, dataset city-wards (25-ward model, 2018)","generated_at":"2026-09-12T03:22:23.112Z","features":[{"type":"Feature","properties":{"id":1,"name":"Etobicoke North","lat":43.72141,"lng":-79.57387},"geometry":{"type":"MultiPolygon","coordinates":[[[[-79.57938,43.76222],[-79.57794,43.76242],[-79.57753,43.76213],[-79.57876,43.76146],[-79.57933,43.76084],[-79.58062,43.76036],[-79.58078,43.75979],[-79.58057,43.75924],[-79.58077,43.75893],[-79.58241,43.75851],[-79.58382,43.7587],[-79.58409,43.75839],[-79.58386,43.75744],[-79.58499,43.7571],[-79.5852,43.75673],[-79.58512,43.75629],[-79.58416,43.75524],[-79.58429,43.75481],[-79.58413,43.7544],[-79.58313,43.75372],[-79.5831,43.75275],[-79.58285,43.75255],[-79.58,43.75157],[-79.57891,43.75079],[-79.5779,43.75036],[-79.57552,43.75003],[-79.57327,43.75036],[-79.57297,43.7502],[-79.57269,43.74971],[-79.57338,43.74769],[-79.57285,43.74696],[-79.56568,43.74577],[-79.56398,43.74526],[-79.56217,43.74407],[-79.56245,43.74345],[-79.56229,43.74285],[-79.55976,43.7425],[-79.55943,43.74262],[-79.55915,43.743],[-79.55839,43.74273],[-79.55785,43.74213],[-79.55834,43.74184],[-79.55838,43.74146],[-79.55783,43.74096],[-79.55746,43.74101],[-79.55679,43.74141],[-79.55698,43.74226],[-79.55674,43.74286],[-79.55646,43.7431],[-79.55437,43.74322],[-79.55121,43.74424],[-79.55037,43.74408],[-79.54984,43.74359],[-79.54994,43.74294],[-79.55041,43.74254],[-79.55039,43.74234],[-79.54999,43.74228],[-79.54934,43.74254],[-79.5492,43.74233],[-79.54935,43.74195],[-79.54913,43.74176],[-79.54761,43.74173],[-79.5464,43.74095],[-79.5461,43.74036],[-79.54643,43.73979],[-79.54822,43.73898],[-79.54836,43.73849],[-79.54887,43.73802],[-79.54994,43.73791],[-79.55005,43.73719],[-79.55056,43.7364],[-79.55046,43.736],[-79.55001,43.73586],[-79.54916,43.73593],[-79.54908,43.73579],[-79.55056,43.73472],[-79.55036,43.73353],[-79.54781,43.73239],[-79.54756,43.73195],[-79.54632,43.73144],[-79.5455,43.73153],[-79.54512,43.73215],[-79.5448,43.73236],[-79.54408,43.73227],[-79.54384,43.73178],[-79.54486,43.73102],[-79.54483,43.7308],[-79.5436,43.73004],[-79.54279,43.72984],[-79.54082,43.72958],[-79.54015,43.72978],[-79.53928,43.73088],[-79.53949,43.73195],[-79.53892,43.73207],[-79.53842,43.73162],[-79.53862,43.72984],[-79.53886,43.72926],[-79.53831,43.72761],[-79.53828,43.72691],[-79.53881,43.72645],[-79.53961,43.72623],[-79.54047,43.72623],[-79.54114,43.72592],[-79.54134,43.72528],[-79.54076,43.72391],[-79.54079,43.72227],[-79.54123,43.72168],[-79.54227,43.72097],[-79.5428,43.72036],[-79.54404,43.71803],[-79.54393,43.71742],[-79.54317,43.71691],[-79.54092,43.71674],[-79.54069,43.71654],[-79.54062,43.71619],[-79.54074,43.71536],[-79.54026,43.71506],[-79.53821,43.71458],[-79.53801,43.71431],[-79.53783,43.71351],[-79.53794,43.7124],[-79.5384,43.71182],[-79.5394,43.71107],[-79.5396,43.71071],[-79.53957,43.71034],[-79.53913,43.70931],[-79.53853,43.70874],[-79.53741,43.70826],[-79.53629,43.70834],[-79.53591,43.7082],[-79.53566,43.70789],[-79.53544,43.70678],[-79.5356,43.70569],[-79.53602,43.70478],[-79.53596,43.70459],[-79.53544,43.70448],[-79.53317,43.70501],[-79.53116,43.70478],[-79.52941,43.70355],[-79.52857,43.70242],[-79.52597,43.7016],[-79.54516,43.69743],[-79.564,43.69303],[-79.57084,43.69159],[-79.56318,43.67448],[-79.56864,43.67409],[-79.58191,43.67226],[-79.58378,43.67127],[-79.59109,43.66859],[-79.59455,43.67421],[-79.59475,43.67502],[-79.59995,43.68373],[-79.60015,43.68511],[-79.60219,43.6878],[-79.60588,43.69468],[-79.61556,43.71017],[-79.62594,43.72819],[-79.62632,43.72903],[-79.62695,43.73142],[-79.62779,43.73318],[-79.62818,43.73353],[-79.62882,43.73365],[-79.62926,43.73464],[-79.63035,43.73547],[-79.63566,43.74462],[-79.63761,43.7483],[-79.63926,43.74987],[-79.63645,43.75106],[-79.63172,43.75151],[-79.58064,43.76302],[-79.57938,43.76222]]]]}},{"type":"Feature","properties":{"id":2,"name":"Etobicoke Centre","lat":43.65481,"lng":-79.55815},"geometry":{"type":"MultiPolygon","coordinates":[[[[-79.52766,43.7012],[-79.52597,43.7016],[-79.52181,43.70004],[-79.52118,43.69972],[-79.52069,43.69875],[-79.52004,43.69797],[-79.51882,43.69712],[-79.51634,43.6968],[-79.5131,43.69723],[-79.51225,43.69695],[-79.51196,43.69669],[-79.5119,43.69639],[-79.51265,43.69517],[-79.51282,43.69424],[-79.51329,43.69338],[-79.51327,43.69157],[-79.51255,43.68882],[-79.51144,43.68715],[-79.51001,43.68352],[-79.50954,43.68291],[-79.50889,43.68244],[-79.50692,43.6824],[-79.50597,43.68223],[-79.5057,43.68196],[-79.50547,43.68092],[-79.50576,43.68024],[-79.50694,43.6796],[-79.50724,43.67927],[-79.50828,43.67716],[-79.50883,43.67639],[-79.51122,43.67497],[-79.51205,43.67432],[-79.5123,43.67393],[-79.51244,43.67352],[-79.51235,43.67258],[-79.51127,43.66828],[-79.51146,43.6679],[-79.5128,43.66686],[-79.51299,43.66654],[-79.51308,43.66576],[-79.5128,43.66411],[-79.5124,43.66292],[-79.51198,43.66247],[-79.5113,43.66212],[-79.50978,43.662],[-79.5066,43.66302],[-79.50552,43.66281],[-79.50756,43.66177],[-79.51748,43.65787],[-79.52021,43.65068],[-79.52108,43.64944],[-79.5224,43.64827],[-79.52375,43.64908],[-79.52556,43.65053],[-79.52655,43.65089],[-79.52935,43.65115],[-79.53084,43.65084],[-79.53111,43.65004],[-79.53199,43.65004],[-79.53229,43.65038],[-79.53225,43.65106],[-79.5324,43.65187],[-79.53258,43.65208],[-79.53464,43.65216],[-79.53551,43.6525],[-79.53716,43.65263],[-79.53754,43.65303],[-79.53717,43.65421],[-79.53786,43.65498],[-79.53854,43.65521],[-79.53976,43.65506],[-79.54016,43.65481],[-79.54022,43.65459],[-79.53965,43.65367],[-79.54048,43.65356],[-79.53536,43.64179],[-79.55959,43.63624],[-79.55677,43.62853],[-79.56376,43.62703],[-79.5639,43.62778],[-79.56411,43.62799],[-79.56479,43.62816],[-79.56686,43.62822],[-79.56744,43.62801],[-79.5677,43.62732],[-79.56837,43.6268],[-79.57022,43.62696],[-79.57246,43.62615],[-79.57369,43.62598],[-79.57451,43.62553],[-79.57506,43.62544],[-79.5769,43.62619],[-79.57971,43.62692],[-79.58095,43.62775],[-79.58374,43.62829],[-79.58539,43.62882],[-79.58583,43.62916],[-79.586,43.62974],[-79.5852,43.63109],[-79.58506,43.63164],[-79.58529,43.63277],[-79.58581,43.63354],[-79.58551,43.63431],[-79.58599,43.63494],[-79.58605,43.63545],[-79.58534,43.6367],[-79.5853,43.63728],[-79.58678,43.6392],[-79.58738,43.64065],[-79.58822,43.64146],[-79.58808,43.64195],[-79.58844,43.6426],[-79.59038,43.644],[-79.59181,43.6446],[-79.59267,43.64469],[-79.59331,43.64451],[-79.59563,43.64321],[-79.59673,43.64304],[-79.59823,43.64309],[-79.59861,43.6432],[-79.59922,43.64369],[-79.60199,43.64413],[-79.60293,43.64469],[-79.60478,43.64443],[-79.60561,43.64483],[-79.60696,43.64467],[-79.60781,43.64505],[-79.60829,43.64604],[-79.60873,43.64645],[-79.58878,43.66462],[-79.59109,43.66859],[-79.58378,43.67127],[-79.58191,43.67226],[-79.56864,43.67409],[-79.56318,43.67448],[-79.57084,43.69159],[-79.564,43.69303],[-79.54516,43.69743],[-79.52766,43.7012]]]]}},{"type":"Feature","properties":{"id":3,"name":"Etobicoke-Lakeshore","lat":43.61419,"lng":-79.50358},"geometry":{"type":"MultiPolygon","coordinates":[[[[-79.49777,43.65198],[-79.49365,43.65231],[-79.49248,43.65212],[-79.4915,43.65163],[-79.49124,43.65126],[-79.49088,43.65005],[-79.49242,43.64786],[-79.49277,43.64712],[-79.49279,43.64621],[-79.49252,43.64562],[-79.49174,43.64495],[-79.4912,43.6442],[-79.49019,43.642],[-79.4898,43.64146],[-79.4891,43.64121],[-79.48666,43.64203],[-79.48522,43.64203],[-79.48499,43.64174],[-79.4851,43.63911],[-79.48483,43.63848],[-79.48385,43.63805],[-79.48233,43.63797],[-79.47885,43.63812],[-79.4775,43.63773],[-79.47709,43.63721],[-79.47683,43.63644],[-79.4755,43.63411],[-79.47243,43.63263],[-79.47123,43.6317],[-79.47145,43.63144],[-79.4708,43.63094],[-79.47083,43.63071],[-79.47211,43.63063],[-79.47239,43.63039],[-79.47261,43.62968],[-79.47319,43.62942],[-79.47319,43.62958],[-79.47339,43.62965],[-79.47385,43.62955],[-79.47422,43.6292],[-79.47408,43.62904],[-79.47446,43.6291],[-79.47492,43.62864],[-79.47501,43.62839],[-79.47476,43.62833],[-79.47483,43.62822],[-79.47507,43.62834],[-79.47528,43.62816],[-79.47559,43.62737],[-79.47541,43.62707],[-79.47576,43.62711],[-79.47612,43.62632],[-79.47624,43.62575],[-79.47596,43.62577],[-79.47594,43.62534],[-79.47608,43.62529],[-79.47636,43.62554],[-79.47664,43.62479],[-79.47635,43.62473],[-79.4763,43.62496],[-79.47615,43.62497],[-79.47626,43.62446],[-79.47592,43.62404],[-79.47658,43.62427],[-79.47685,43.6239],[-79.47653,43.6234],[-79.47504,43.62348],[-79.47538,43.6232],[-79.47526,43.62304],[-79.47406,43.62257],[-79.47339,43.62322],[-79.47348,43.62372],[-79.4737,43.62399],[-79.47425,43.62382],[-79.47386,43.62419],[-79.47302,43.6235],[-79.4724,43.62349],[-79.47156,43.62434],[-79.47198,43.62497],[-79.47203,43.62535],[-79.47135,43.6251],[-79.47067,43.62533],[-79.4703,43.62506],[-79.47001,43.62394],[-79.46923,43.62295],[-79.4692,43.62256],[-79.46962,43.62238],[-79.47047,43.62256],[-79.47253,43.6224],[-79.47324,43.62206],[-79.47482,43.62018],[-79.47432,43.61905],[-79.47464,43.61873],[-79.47531,43.61893],[-79.47577,43.61977],[-79.47706,43.62011],[-79.47773,43.62053],[-79.47724,43.62041],[-79.47705,43.62081],[-79.47754,43.62158],[-79.47856,43.6215],[-79.47951,43.62169],[-79.47997,43.62152],[-79.47947,43.62142],[-79.47941,43.62118],[-79.47915,43.62124],[-79.47918,43.62106],[-79.47782,43.62047],[-79.48033,43.62139],[-79.4804,43.62107],[-79.47945,43.62047],[-79.47956,43.62037],[-79.47946,43.62029],[-79.47922,43.62035],[-79.47808,43.61977],[-79.47713,43.61961],[-79.47651,43.61908],[-79.47667,43.61855],[-79.47727,43.61831],[-79.47768,43.61841],[-79.47817,43.6191],[-79.47832,43.61911],[-79.47884,43.6186],[-79.47866,43.61818],[-79.47834,43.61792],[-79.47727,43.61735],[-79.47673,43.61746],[-79.47591,43.6182],[-79.47493,43.61778],[-79.475,43.61759],[-79.47546,43.61767],[-79.47576,43.61752],[-79.47735,43.61555],[-79.47755,43.61511],[-79.47742,43.61483],[-79.47692,43.61445],[-79.47701,43.61432],[-79.47728,43.61419],[-79.47828,43.61444],[-79.47862,43.61424],[-79.47928,43.61303],[-79.47891,43.61239],[-79.47906,43.61197],[-79.47944,43.61192],[-79.4798,43.61212],[-79.48029,43.61306],[-79.4808,43.61342],[-79.48179,43.61337],[-79.48244,43.61315],[-79.48271,43.61292],[-79.48279,43.61239],[-79.48307,43.61237],[-79.48343,43.61282],[-79.48418,43.61321],[-79.48354,43.61415],[-79.48332,43.61474],[-79.48315,43.61476],[-79.48306,43.61425],[-79.4827,43.61396],[-79.48178,43.61411],[-79.48052,43.61405],[-79.48011,43.61527],[-79.48013,43.61546],[-79.48053,43.6156],[-79.48043,43.61619],[-79.48006,43.61617],[-79.47885,43.61709],[-79.48056,43.61838],[-79.48131,43.61783],[-79.48167,43.61813],[-79.48122,43.61853],[-79.48163,43.61877],[-79.48253,43.61844],[-79.48314,43.6184],[-79.4838,43.61792],[-79.48441,43.6177],[-79.48521,43.61638],[-79.48533,43.61565],[-79.48592,43.61453],[-79.486,43.61383],[-79.48629,43.6136],[-79.48669,43.6136],[-79.48702,43.61298],[-79.48694,43.61269],[-79.48655,43.61263],[-79.48644,43.61294],[-79.48617,43.61275],[-79.4862,43.61232],[-79.48667,43.61226],[-79.48681,43.61197],[-79.48678,43.61181],[-79.4864,43.61167],[-79.48669,43.61156],[-79.48677,43.61114],[-79.48627,43.61095],[-79.4867,43.6108],[-79.4868,43.61048],[-79.48647,43.61021],[-79.48654,43.60969],[-79.48697,43.60933],[-79.4872,43.60846],[-79.48775,43.60799],[-79.48842,43.6068],[-79.48892,43.60663],[-79.48946,43.60553],[-79.4925,43.60266],[-79.49259,43.60214],[-79.49307,43.60201],[-79.49493,43.6022],[-79.49595,43.60195],[-79.49654,43.60155],[-79.49748,43.60071],[-79.49816,43.59978],[-79.49819,43.5995],[-79.49784,43.59861],[-79.49836,43.59805],[-79.49832,43.59782],[-79.49875,43.59793],[-79.49956,43.59753],[-79.50031,43.59625],[-79.50048,43.59576],[-79.50039,43.5954],[-79.50092,43.59499],[-79.50251,43.59443],[-79.50373,43.59422],[-79.50496,43.59422],[-79.50506,43.59396],[-79.50592,43.59344],[-79.50627,43.59355],[-79.50636,43.59404],[-79.50664,43.59417],[-79.50863,43.59374],[-79.50902,43.59392],[-79.51064,43.59367],[-79.51076,43.59342],[-79.51063,43.59304],[-79.5097,43.59272],[-79.51059,43.59264],[-79.50963,43.59243],[-79.51026,43.59239],[-79.51059,43.5921],[-79.51094,43.59141],[-79.51087,43.59104],[-79.50869,43.59039],[-79.50879,43.59021],[-79.50974,43.59003],[-79.51039,43.58906],[-79.51012,43.58883],[-79.5104,43.5887],[-79.51036,43.58801],[-79.51007,43.58778],[-79.50938,43.58763],[-79.50925,43.58738],[-79.50935,43.58727],[-79.51032,43.5871],[-79.5108,43.58732],[-79.51125,43.58719],[-79.51172,43.58731],[-79.51209,43.58722],[-79.51211,43.58709],[-79.51271,43.58717],[-79.51304,43.58699],[-79.51403,43.58706],[-79.51458,43.58719],[-79.51577,43.58791],[-79.51715,43.58831],[-79.51727,43.58852],[-79.51531,43.58803],[-79.51466,43.58763],[-79.51345,43.588],[-79.51308,43.58771],[-79.5122,43.58794],[-79.51226,43.58827],[-79.51113,43.58879],[-79.51108,43.58909],[-79.51162,43.59029],[-79.51299,43.59067],[-79.51521,43.59005],[-79.51544,43.59016],[-79.51555,43.59084],[-79.51591,43.59053],[-79.51569,43.59006],[-79.5157,43.5895],[-79.51558,43.58938],[-79.51506,43.5894],[-79.51496,43.58895],[-79.51538,43.58889],[-79.51617,43.58912],[-79.51649,43.58889],[-79.51624,43.58954],[-79.51673,43.59028],[-79.51723,43.59056],[-79.5182,43.59039],[-79.51866,43.59072],[-79.51984,43.59021],[-79.52349,43.59003],[-79.52464,43.58976],[-79.52755,43.58957],[-79.52853,43.5891],[-79.52925,43.58824],[-79.52971,43.58791],[-79.53074,43.58789],[-79.53088,43.58816],[-79.53054,43.58835],[-79.53058,43.58853],[-79.53084,43.58859],[-79.53349,43.58811],[-79.534,43.58779],[-79.53396,43.58754],[-79.53426,43.58797],[-79.53601,43.58817],[-79.53696,43.58808],[-79.53936,43.5866],[-79.53996,43.58608],[-79.5411,43.58464],[-79.54137,43.58454],[-79.54222,43.58366],[-79.54341,43.581],[-79.54388,43.58139],[-79.54465,43.58528],[-79.54816,43.587],[-79.54641,43.58893],[-79.54848,43.59017],[-79.54935,43.59034],[-79.54955,43.59062],[-79.54949,43.59226],[-79.54871,43.59382],[-79.54866,43.59442],[-79.54881,43.59495],[-79.54942,43.59521],[-79.55238,43.59532],[-79.55324,43.5955],[-79.55371,43.59576],[-79.55395,43.59633],[-79.55348,43.5979],[-79.55359,43.59829],[-79.55408,43.59899],[-79.55538,43.59942],[-79.55569,43.59967],[-79.55625,43.60141],[-79.55613,43.60204],[-79.55631,43.60257],[-79.55802,43.60349],[-79.55926,43.60475],[-79.56046,43.60546],[-79.56187,43.60604],[-79.56252,43.60667],[-79.56471,43.60711],[-79.56491,43.60735],[-79.56461,43.60795],[-79.5648,43.60838],[-79.56566,43.60867],[-79.56664,43.60868],[-79.567,43.60895],[-79.56724,43.60943],[-79.56733,43.61022],[-79.56717,43.61066],[-79.56615,43.61107],[-79.56395,43.61253],[-79.56409,43.61298],[-79.56438,43.61324],[-79.56512,43.61342],[-79.56631,43.61339],[-79.56726,43.61363],[-79.56789,43.61389],[-79.56835,43.61437],[-79.56786,43.61601],[-79.56785,43.61678],[-79.56697,43.61729],[-79.56654,43.61782],[-79.56682,43.61886],[-79.56672,43.61949],[-79.56691,43.62071],[-79.56558,43.62162],[-79.5659,43.62252],[-79.56553,43.62421],[-79.56509,43.62458],[-79.56408,43.62442],[-79.5636,43.62489],[-79.56344,43.62631],[-79.56376,43.62703],[-79.55677,43.62853],[-79.55959,43.63624],[-79.53536,43.64179],[-79.54048,43.65356],[-79.53965,43.65367],[-79.54022,43.6547],[-79.53958,43.65512],[-79.53854,43.65521],[-79.53786,43.65498],[-79.53717,43.65421],[-79.53754,43.65303],[-79.53716,43.65263],[-79.53551,43.6525],[-79.53464,43.65216],[-79.53258,43.65208],[-79.5324,43.65187],[-79.53225,43.65106],[-79.53229,43.65038],[-79.53199,43.65004],[-79.53111,43.65004],[-79.53084,43.65084],[-79.52935,43.65115],[-79.52655,43.65089],[-79.52556,43.65053],[-79.52375,43.64908],[-79.5224,43.64827],[-79.52108,43.64944],[-79.52021,43.65068],[-79.51748,43.65787],[-79.50756,43.66177],[-79.50552,43.66281],[-79.50409,43.66195],[-79.50148,43.66],[-79.50014,43.65934],[-79.49952,43.65869],[-79.49953,43.65791],[-79.50003,43.65717],[-79.50161,43.65608],[-79.50251,43.65514],[-79.50286,43.65405],[-79.50278,43.65321],[-79.50207,43.65258],[-79.50152,43.6524],[-79.49777,43.65198]]]]}},{"type":"Feature","properties":{"id":4,"name":"Parkdale-High Park","lat":43.64148,"lng":-79.46409},"geometry":{"type":"MultiPolygon","coordinates":[[[[-79.46934,43.6673],[-79.46005,43.66723],[-79.44405,43.65092],[-79.44224,43.64938],[-79.4408,43.64837],[-79.43888,43.6473],[-79.42821,43.64231],[-79.42864,43.64221],[-79.42542,43.63388],[-79.42871,43.63291],[-79.42778,43.62979],[-79.43362,43.63085],[-79.43926,43.63314],[-79.43929,43.63357],[-79.44001,43.63391],[-79.44,43.63423],[-79.44114,43.63487],[-79.442,43.63495],[-79.44322,43.63472],[-79.44392,43.63501],[-79.44391,43.63515],[-79.44684,43.63635],[-79.44783,43.63654],[-79.44918,43.63617],[-79.44981,43.63654],[-79.45212,43.63663],[-79.45383,43.6373],[-79.45523,43.63748],[-79.45637,43.6372],[-79.4579,43.63718],[-79.45875,43.63676],[-79.46029,43.63674],[-79.46133,43.63634],[-79.46166,43.6364],[-79.46261,43.63567],[-79.46308,43.63579],[-79.46394,43.6357],[-79.46501,43.63525],[-79.4662,43.63446],[-79.467,43.63444],[-79.46805,43.63403],[-79.46924,43.63278],[-79.47092,43.632],[-79.47123,43.6317],[-79.47243,43.63263],[-79.4755,43.63411],[-79.47683,43.63644],[-79.47709,43.63721],[-79.4775,43.63773],[-79.47885,43.63812],[-79.48233,43.63797],[-79.48385,43.63805],[-79.48483,43.63848],[-79.4851,43.63911],[-79.48499,43.64174],[-79.48522,43.64203],[-79.48666,43.64203],[-79.4891,43.64121],[-79.48944,43.64123],[-79.4899,43.64155],[-79.4912,43.6442],[-79.49174,43.64495],[-79.49252,43.64562],[-79.49279,43.64621],[-79.49277,43.64712],[-79.49242,43.64786],[-79.49088,43.65005],[-79.49124,43.65126],[-79.4915,43.65163],[-79.49248,43.65212],[-79.49365,43.65231],[-79.49665,43.65198],[-79.50034,43.65217],[-79.50152,43.6524],[-79.50249,43.65288],[-79.50278,43.65321],[-79.50287,43.65363],[-79.50279,43.65445],[-79.50251,43.65514],[-79.50161,43.65608],[-79.50003,43.65717],[-79.49953,43.65791],[-79.49952,43.65869],[-79.50014,43.65934],[-79.50148,43.66],[-79.50409,43.66195],[-79.50577,43.66291],[-79.5066,43.66302],[-79.50709,43.66291],[-79.50929,43.66212],[-79.51025,43.66194],[-79.5113,43.66212],[-79.51221,43.66263],[-79.51068,43.66388],[-79.50938,43.66463],[-79.50814,43.66509],[-79.50654,43.66539],[-79.47498,43.66729],[-79.46934,43.6673]]]]}},{"type":"Feature","properties":{"id":5,"name":"York South-Weston","lat":43.69388,"lng":-79.49671},"geometry":{"type":"MultiPolygon","coordinates":[[[[-79.46935,43.70868],[-79.4683,43.70387],[-79.46546,43.69385],[-79.46496,43.69269],[-79.46306,43.68934],[-79.46176,43.68437],[-79.4613,43.68324],[-79.46768,43.6819],[-79.46645,43.6806],[-79.47056,43.6797],[-79.46952,43.67687],[-79.46005,43.66723],[-79.47397,43.66733],[-79.50596,43.66545],[-79.50762,43.66522],[-79.50907,43.66478],[-79.51068,43.66388],[-79.51221,43.66263],[-79.5128,43.66411],[-79.51308,43.66617],[-79.5128,43.66686],[-79.51146,43.6679],[-79.51127,43.66828],[-79.51235,43.67258],[-79.51244,43.67352],[-79.5123,43.67393],[-79.51205,43.67432],[-79.51122,43.67497],[-79.50883,43.67639],[-79.50828,43.67716],[-79.50724,43.67927],[-79.50694,43.6796],[-79.50576,43.68024],[-79.50547,43.68092],[-79.5057,43.68196],[-79.50597,43.68223],[-79.50692,43.6824],[-79.50889,43.68244],[-79.50954,43.68291],[-79.51001,43.68352],[-79.51144,43.68715],[-79.51255,43.68882],[-79.51327,43.69157],[-79.51329,43.69338],[-79.51282,43.69424],[-79.51265,43.69517],[-79.5119,43.69639],[-79.51196,43.69669],[-79.51225,43.69695],[-79.5131,43.69723],[-79.51634,43.6968],[-79.51882,43.69712],[-79.51949,43.69747],[-79.52032,43.69825],[-79.52118,43.69972],[-79.52333,43.70069],[-79.52718,43.70207],[-79.52857,43.70242],[-79.52941,43.70355],[-79.53116,43.70478],[-79.53317,43.70501],[-79.53544,43.70448],[-79.53596,43.70459],[-79.53602,43.70478],[-79.5356,43.70569],[-79.53544,43.70678],[-79.53566,43.70789],[-79.53591,43.7082],[-79.53629,43.70834],[-79.53765,43.70832],[-79.5389,43.709],[-79.53933,43.70966],[-79.5396,43.71071],[-79.53913,43.71138],[-79.53812,43.71209],[-79.53784,43.71299],[-79.52684,43.71554],[-79.52471,43.71591],[-79.50274,43.71832],[-79.49978,43.7188],[-79.49026,43.72053],[-79.47257,43.72487],[-79.46935,43.70868]]]]}},{"type":"Feature","properties":{"id":6,"name":"York Centre","lat":43.74976,"lng":-79.46262},"geometry":{"type":"MultiPolygon","coordinates":[[[[-79.44043,43.7634],[-79.43998,43.76156],[-79.43934,43.76155],[-79.43874,43.76132],[-79.43833,43.76071],[-79.43784,43.76064],[-79.43766,43.76044],[-79.43761,43.7602],[-79.43811,43.75963],[-79.43814,43.7594],[-79.43797,43.75919],[-79.4374,43.75899],[-79.43655,43.75912],[-79.43526,43.75886],[-79.43461,43.75827],[-79.43369,43.75795],[-79.43369,43.75754],[-79.43298,43.75719],[-79.4308,43.75757],[-79.43031,43.75752],[-79.42854,43.7554],[-79.42833,43.75454],[-79.42806,43.75413],[-79.42608,43.75318],[-79.42347,43.75131],[-79.42229,43.74961],[-79.4204,43.74929],[-79.41926,43.74968],[-79.41764,43.74982],[-79.41618,43.75058],[-79.41594,43.75141],[-79.41569,43.75175],[-79.41524,43.75198],[-79.41393,43.75152],[-79.41193,43.7518],[-79.41145,43.75165],[-79.41475,43.74947],[-79.41765,43.74624],[-79.41986,43.74465],[-79.42666,43.74031],[-79.43626,43.73465],[-79.44,43.73248],[-79.4423,43.73152],[-79.47092,43.72527],[-79.49069,43.72043],[-79.50197,43.71843],[-79.50783,43.71776],[-79.51225,43.73593],[-79.51322,43.73939],[-79.51237,43.73954],[-79.51038,43.73953],[-79.49702,43.74252],[-79.49732,43.7429],[-79.49722,43.74333],[-79.49788,43.7436],[-79.49785,43.74462],[-79.49806,43.74526],[-79.49796,43.74591],[-79.49963,43.74654],[-79.50193,43.74712],[-79.50221,43.74767],[-79.50345,43.74813],[-79.50386,43.74863],[-79.50474,43.74915],[-79.50291,43.74934],[-79.49755,43.75054],[-79.49663,43.75095],[-79.4946,43.75233],[-79.49207,43.75298],[-79.49089,43.75286],[-79.48947,43.75183],[-79.48817,43.75202],[-79.49464,43.77766],[-79.49468,43.77871],[-79.49431,43.7803],[-79.49451,43.78158],[-79.47009,43.78728],[-79.44576,43.79241],[-79.4454,43.79069],[-79.4466,43.78896],[-79.44663,43.78811],[-79.44043,43.7634]]]]}},{"type":"Feature","properties":{"id":7,"name":"Humber River-Black Creek","lat":43.74561,"lng":-79.53783},"geometry":{"type":"MultiPolygon","coordinates":[[[[-79.49105,43.7635],[-79.48817,43.75202],[-79.48947,43.75183],[-79.49089,43.75286],[-79.49207,43.75298],[-79.4946,43.75233],[-79.49663,43.75095],[-79.49755,43.75054],[-79.50291,43.74934],[-79.50474,43.74915],[-79.50386,43.74863],[-79.50345,43.74813],[-79.50221,43.74767],[-79.50193,43.74712],[-79.49963,43.74654],[-79.49796,43.74591],[-79.49806,43.74526],[-79.49785,43.74462],[-79.49788,43.7436],[-79.49722,43.74333],[-79.49732,43.7429],[-79.49702,43.74252],[-79.51038,43.73953],[-79.51237,43.73954],[-79.51322,43.73939],[-79.51225,43.73593],[-79.50783,43.71776],[-79.52528,43.71582],[-79.53784,43.71299],[-79.53785,43.71371],[-79.53821,43.71458],[-79.54026,43.71506],[-79.54074,43.71536],[-79.54062,43.71619],[-79.54069,43.71654],[-79.54092,43.71674],[-79.54326,43.71694],[-79.54385,43.71734],[-79.54408,43.7177],[-79.54404,43.71803],[-79.5428,43.72036],[-79.54227,43.72097],[-79.54123,43.72168],[-79.54079,43.72227],[-79.54076,43.72391],[-79.54134,43.72528],[-79.54114,43.72592],[-79.54047,43.72623],[-79.53961,43.72623],[-79.53881,43.72645],[-79.53828,43.72691],[-79.53831,43.72761],[-79.53886,43.72926],[-79.53856,43.73015],[-79.53846,43.73177],[-79.53892,43.73207],[-79.53949,43.73195],[-79.53928,43.73088],[-79.54015,43.72978],[-79.54082,43.72958],[-79.54279,43.72984],[-79.5436,43.73004],[-79.54483,43.7308],[-79.54486,43.73102],[-79.54384,43.73178],[-79.54408,43.73227],[-79.5448,43.73236],[-79.54512,43.73215],[-79.5455,43.73153],[-79.54632,43.73144],[-79.54756,43.73195],[-79.54781,43.73239],[-79.54919,43.7331],[-79.55001,43.7333],[-79.55046,43.73373],[-79.55056,43.73472],[-79.54908,43.73579],[-79.54916,43.73593],[-79.55001,43.73586],[-79.55046,43.736],[-79.55056,43.7364],[-79.55005,43.73719],[-79.54994,43.73791],[-79.54887,43.73802],[-79.54836,43.73849],[-79.54822,43.73898],[-79.54643,43.73979],[-79.5461,43.74036],[-79.5464,43.74095],[-79.54761,43.74173],[-79.54913,43.74176],[-79.54935,43.74195],[-79.5492,43.74233],[-79.54934,43.74254],[-79.54999,43.74228],[-79.55039,43.74234],[-79.55041,43.74254],[-79.54994,43.74294],[-79.54984,43.74359],[-79.55037,43.74408],[-79.55121,43.74424],[-79.55437,43.74322],[-79.55646,43.7431],[-79.55674,43.74286],[-79.55698,43.74226],[-79.55679,43.74141],[-79.55746,43.74101],[-79.55783,43.74096],[-79.55838,43.74146],[-79.55834,43.74184],[-79.55785,43.74213],[-79.55839,43.74273],[-79.55915,43.743],[-79.55943,43.74262],[-79.55976,43.7425],[-79.56229,43.74285],[-79.56245,43.74345],[-79.56217,43.74407],[-79.56398,43.74526],[-79.56568,43.74577],[-79.57285,43.74696],[-79.57338,43.74769],[-79.57269,43.74971],[-79.57297,43.7502],[-79.57327,43.75036],[-79.57552,43.75003],[-79.5779,43.75036],[-79.57891,43.75079],[-79.58,43.75157],[-79.58285,43.75255],[-79.5831,43.75275],[-79.58313,43.75372],[-79.58413,43.7544],[-79.58428,43.75546],[-79.58521,43.7565],[-79.58499,43.7571],[-79.58386,43.75744],[-79.58407,43.7582],[-79.584,43.75856],[-79.58355,43.75874],[-79.58271,43.75852],[-79.58208,43.75854],[-79.58077,43.75893],[-79.58057,43.75924],[-79.58078,43.75979],[-79.58062,43.76036],[-79.57933,43.76084],[-79.57876,43.76146],[-79.57753,43.76213],[-79.57794,43.76242],[-79.57938,43.76222],[-79.58064,43.76302],[-79.56478,43.76655],[-79.52345,43.77499],[-79.52057,43.77575],[-79.51701,43.77636],[-79.49451,43.78158],[-79.49431,43.7803],[-79.49468,43.77871],[-79.49464,43.77766],[-79.49105,43.7635]]]]}},{"type":"Feature","properties":{"id":8,"name":"Eglinton-Lawrence","lat":43.72517,"lng":-79.43085},"geometry":{"type":"MultiPolygon","coordinates":[[[[-79.46457,43.69217],[-79.46503,43.69283],[-79.46548,43.69392],[-79.46851,43.70468],[-79.47257,43.72487],[-79.44371,43.73112],[-79.44075,43.73212],[-79.42666,43.74031],[-79.4189,43.74528],[-79.41765,43.74624],[-79.41459,43.7496],[-79.40839,43.75362],[-79.4081,43.7521],[-79.40811,43.74979],[-79.40712,43.74606],[-79.40453,43.73417],[-79.4022,43.7251],[-79.40114,43.71955],[-79.39837,43.70673],[-79.44733,43.69636],[-79.46305,43.69284],[-79.46457,43.69217]]]]}},{"type":"Feature","properties":{"id":9,"name":"Davenport","lat":43.66752,"lng":-79.44369},"geometry":{"type":"MultiPolygon","coordinates":[[[[-79.44642,43.68625],[-79.44612,43.68557],[-79.43869,43.68713],[-79.43842,43.68637],[-79.43826,43.68636],[-79.43464,43.6871],[-79.43326,43.68329],[-79.43373,43.68318],[-79.43382,43.68302],[-79.43298,43.68097],[-79.4327,43.6808],[-79.43023,43.67474],[-79.43098,43.67472],[-79.42566,43.66198],[-79.42078,43.64933],[-79.42475,43.64944],[-79.4214,43.64061],[-79.42439,43.64099],[-79.42719,43.64181],[-79.43932,43.64752],[-79.44233,43.64945],[-79.44405,43.65092],[-79.46952,43.67687],[-79.47056,43.6797],[-79.46645,43.6806],[-79.46768,43.6819],[-79.4613,43.68324],[-79.46176,43.68437],[-79.46301,43.68919],[-79.46462,43.69216],[-79.46305,43.69284],[-79.45028,43.69569],[-79.44642,43.68625]]]]}},{"type":"Feature","properties":{"id":10,"name":"Spadina-Fort York","lat":43.63012,"lng":-79.39286},"geometry":{"type":"MultiPolygon","coordinates":[[[[-79.38377,43.65572],[-79.38234,43.65215],[-79.38155,43.6517],[-79.37913,43.64599],[-79.37803,43.64623],[-79.37697,43.64688],[-79.3765,43.64578],[-79.37174,43.64804],[-79.36394,43.64981],[-79.36354,43.65011],[-79.36343,43.64995],[-79.36234,43.65028],[-79.36214,43.6502],[-79.35201,43.6525],[-79.35127,43.65302],[-79.35097,43.65371],[-79.35038,43.65367],[-79.35018,43.65318],[-79.34952,43.6536],[-79.34742,43.65099],[-79.3473,43.65075],[-79.34747,43.65051],[-79.35985,43.6453],[-79.34965,43.63339],[-79.35252,43.63371],[-79.34939,43.63102],[-79.34953,43.63091],[-79.34982,43.62904],[-79.34983,43.62964],[-79.35021,43.62973],[-79.3526,43.62989],[-79.35441,43.62977],[-79.35607,43.62715],[-79.35782,43.62545],[-79.35893,43.62463],[-79.36645,43.61934],[-79.37049,43.6176],[-79.37138,43.61696],[-79.37158,43.61647],[-79.37194,43.61634],[-79.37251,43.61641],[-79.375,43.61513],[-79.37584,43.61453],[-79.37708,43.61447],[-79.37861,43.61386],[-79.3797,43.61373],[-79.38218,43.61223],[-79.38223,43.61233],[-79.3849,43.61196],[-79.38755,43.61212],[-79.38877,43.61195],[-79.38985,43.6124],[-79.38961,43.61304],[-79.3899,43.6133],[-79.38994,43.61366],[-79.39161,43.61506],[-79.39156,43.61585],[-79.39192,43.61665],[-79.39447,43.61986],[-79.39802,43.62258],[-79.39851,43.62318],[-79.40136,43.62539],[-79.40329,43.62664],[-79.40429,43.62644],[-79.40476,43.62743],[-79.4049,43.62784],[-79.40321,43.62907],[-79.39877,43.63155],[-79.39785,43.63268],[-79.39828,43.63296],[-79.39792,43.63336],[-79.40232,43.63102],[-79.40303,43.63128],[-79.40294,43.63147],[-79.40506,43.63312],[-79.40665,43.63285],[-79.40862,43.63307],[-79.40879,43.6317],[-79.41,43.63112],[-79.40999,43.63094],[-79.40946,43.63102],[-79.40905,43.62965],[-79.41019,43.62924],[-79.41006,43.6282],[-79.41087,43.62748],[-79.41124,43.62731],[-79.41281,43.62735],[-79.41349,43.62697],[-79.41437,43.62718],[-79.41539,43.62708],[-79.41559,43.62687],[-79.41563,43.62764],[-79.4161,43.62786],[-79.4162,43.6281],[-79.41733,43.62792],[-79.41783,43.62734],[-79.41775,43.62691],[-79.41838,43.62703],[-79.41863,43.62675],[-79.41652,43.6264],[-79.41484,43.62651],[-79.41502,43.6264],[-79.41659,43.62626],[-79.41822,43.62649],[-79.41946,43.62689],[-79.42001,43.62676],[-79.42036,43.62717],[-79.42096,43.62743],[-79.42138,43.62754],[-79.42221,43.62741],[-79.42248,43.62754],[-79.42254,43.62773],[-79.42212,43.62813],[-79.42205,43.62839],[-79.42247,43.62906],[-79.41963,43.62932],[-79.41933,43.62899],[-79.41971,43.62875],[-79.41987,43.62834],[-79.41935,43.62869],[-79.41915,43.62849],[-79.41932,43.62798],[-79.41903,43.62787],[-79.41867,43.62796],[-79.41853,43.62825],[-79.41803,43.62823],[-79.41843,43.6295],[-79.41868,43.62945],[-79.42014,43.63013],[-79.42596,43.62966],[-79.42778,43.62979],[-79.42871,43.63291],[-79.42542,43.63388],[-79.42864,43.64221],[-79.42821,43.64231],[-79.4267,43.64161],[-79.42439,43.64099],[-79.4214,43.64061],[-79.42475,43.64944],[-79.42078,43.64933],[-79.4056,43.65238],[-79.40375,43.65174],[-79.39146,43.65433],[-79.38831,43.65479],[-79.38377,43.65572]]]]}},{"type":"Feature","properties":{"id":11,"name":"University-Rosedale","lat":43.67663,"lng":-79.38042},"geometry":{"type":"MultiPolygon","coordinates":[[[[-79.39004,43.6905],[-79.39058,43.69106],[-79.39079,43.69099],[-79.39092,43.6913],[-79.38874,43.69172],[-79.38907,43.69252],[-79.38888,43.69256],[-79.38912,43.6931],[-79.38188,43.69466],[-79.38135,43.69509],[-79.3765,43.6931],[-79.37515,43.69282],[-79.37396,43.69236],[-79.37249,43.69136],[-79.37085,43.69063],[-79.36688,43.69435],[-79.36628,43.69409],[-79.36347,43.69349],[-79.36268,43.69307],[-79.36211,43.69244],[-79.36195,43.69138],[-79.36231,43.69068],[-79.3636,43.68934],[-79.36378,43.68852],[-79.36358,43.68792],[-79.36323,43.68813],[-79.36311,43.68861],[-79.36284,43.68884],[-79.36246,43.68879],[-79.36217,43.68847],[-79.36256,43.68801],[-79.36253,43.68761],[-79.36173,43.68595],[-79.36171,43.6851],[-79.36209,43.68437],[-79.36339,43.68321],[-79.36465,43.68274],[-79.36617,43.68172],[-79.36637,43.6814],[-79.36634,43.68103],[-79.36611,43.68069],[-79.36373,43.6788],[-79.3636,43.67806],[-79.36411,43.67748],[-79.36483,43.67701],[-79.36496,43.67673],[-79.36299,43.67481],[-79.36288,43.6744],[-79.36301,43.67332],[-79.36157,43.67268],[-79.36053,43.67197],[-79.35971,43.67046],[-79.36049,43.67003],[-79.36112,43.67003],[-79.36587,43.67164],[-79.36808,43.67174],[-79.37018,43.67263],[-79.37458,43.67307],[-79.37715,43.67315],[-79.37685,43.67236],[-79.37947,43.67183],[-79.37939,43.67114],[-79.37991,43.66997],[-79.38611,43.66863],[-79.38616,43.66874],[-79.38887,43.6682],[-79.38638,43.66247],[-79.38585,43.66082],[-79.38311,43.66137],[-79.38093,43.65633],[-79.38831,43.65479],[-79.39146,43.65433],[-79.40375,43.65174],[-79.4056,43.65238],[-79.42078,43.64933],[-79.42566,43.66198],[-79.4294,43.67097],[-79.40158,43.67667],[-79.39844,43.67777],[-79.39141,43.68097],[-79.39119,43.68108],[-79.39285,43.68503],[-79.39026,43.68559],[-79.39073,43.68679],[-79.38665,43.6877],[-79.38704,43.68786],[-79.38727,43.68827],[-79.38848,43.6888],[-79.38978,43.68978],[-79.39004,43.6905]]]]}},{"type":"Feature","properties":{"id":12,"name":"Toronto-St. Paul's","lat":43.68819,"lng":-79.41116},"geometry":{"type":"MultiPolygon","coordinates":[[[[-79.38874,43.69172],[-79.39092,43.6913],[-79.39079,43.69099],[-79.39058,43.69106],[-79.39007,43.69058],[-79.38978,43.68978],[-79.38848,43.6888],[-79.38727,43.68827],[-79.38704,43.68786],[-79.38665,43.6877],[-79.39073,43.68679],[-79.39026,43.68559],[-79.39285,43.68503],[-79.39119,43.68108],[-79.39141,43.68097],[-79.39844,43.67777],[-79.40158,43.67667],[-79.4294,43.67097],[-79.43098,43.67472],[-79.43023,43.67474],[-79.4327,43.6808],[-79.43298,43.68097],[-79.43382,43.68302],[-79.43373,43.68318],[-79.43326,43.68329],[-79.43464,43.6871],[-79.43826,43.68636],[-79.43842,43.68637],[-79.43869,43.68713],[-79.44612,43.68557],[-79.45028,43.69569],[-79.39837,43.70673],[-79.399,43.70958],[-79.39123,43.71113],[-79.38703,43.70051],[-79.38653,43.69833],[-79.38485,43.69403],[-79.38912,43.6931],[-79.38888,43.69256],[-79.38907,43.69252],[-79.38874,43.69172]]]]}},{"type":"Feature","properties":{"id":13,"name":"Toronto Centre","lat":43.66204,"lng":-79.36489},"geometry":{"type":"MultiPolygon","coordinates":[[[[-79.37715,43.67315],[-79.37458,43.67307],[-79.37018,43.67263],[-79.36808,43.67174],[-79.36587,43.67164],[-79.36112,43.67003],[-79.36049,43.67003],[-79.35971,43.67046],[-79.35781,43.66901],[-79.35738,43.66837],[-79.35428,43.65779],[-79.34952,43.6536],[-79.35018,43.65318],[-79.35038,43.65367],[-79.35097,43.65371],[-79.35127,43.65302],[-79.35201,43.6525],[-79.36214,43.6502],[-79.36234,43.65028],[-79.36343,43.64995],[-79.36354,43.65011],[-79.36394,43.64981],[-79.37174,43.64804],[-79.3765,43.64578],[-79.37697,43.64688],[-79.37803,43.64623],[-79.37913,43.64599],[-79.38155,43.6517],[-79.38234,43.65215],[-79.38377,43.65572],[-79.38093,43.65633],[-79.38137,43.65742],[-79.38311,43.66137],[-79.38585,43.66082],[-79.38638,43.66247],[-79.38887,43.6682],[-79.38616,43.66874],[-79.38611,43.66863],[-79.37991,43.66997],[-79.37939,43.67114],[-79.37947,43.67183],[-79.37685,43.67236],[-79.37715,43.67315]]]]}},{"type":"Feature","properties":{"id":14,"name":"Toronto-Danforth","lat":43.63903,"lng":-79.33439},"geometry":{"type":"MultiPolygon","coordinates":[[[[-79.33212,43.70304],[-79.33182,43.70199],[-79.3313,43.70166],[-79.3271,43.7015],[-79.3296,43.69827],[-79.32956,43.69794],[-79.3256,43.68805],[-79.31487,43.66227],[-79.31492,43.66197],[-79.31711,43.66147],[-79.31708,43.66095],[-79.31767,43.66089],[-79.31788,43.66108],[-79.31787,43.66091],[-79.31806,43.66089],[-79.31707,43.66079],[-79.31561,43.65959],[-79.31351,43.65835],[-79.31314,43.65792],[-79.31372,43.65757],[-79.31443,43.6574],[-79.31616,43.6576],[-79.31675,43.6573],[-79.31628,43.65679],[-79.316,43.65609],[-79.31683,43.65557],[-79.31801,43.65433],[-79.31946,43.6516],[-79.3201,43.64939],[-79.32022,43.64841],[-79.31994,43.64796],[-79.32005,43.64673],[-79.31978,43.64611],[-79.32034,43.64554],[-79.3213,43.64269],[-79.32127,43.64239],[-79.32068,43.64202],[-79.32064,43.64178],[-79.3212,43.6411],[-79.32206,43.63891],[-79.3216,43.63811],[-79.32161,43.63777],[-79.32243,43.63704],[-79.32317,43.63477],[-79.32311,43.63446],[-79.32283,43.63418],[-79.32086,43.63321],[-79.32189,43.63274],[-79.32199,43.63247],[-79.32236,43.63039],[-79.32231,43.62986],[-79.3222,43.6297],[-79.32109,43.62935],[-79.32211,43.62913],[-79.32228,43.62895],[-79.3227,43.6267],[-79.32246,43.62621],[-79.32157,43.62607],[-79.32142,43.62589],[-79.32262,43.62556],[-79.32295,43.62493],[-79.32314,43.62399],[-79.32312,43.62307],[-79.32274,43.62277],[-79.3219,43.62261],[-79.32179,43.62238],[-79.32195,43.62225],[-79.32294,43.62228],[-79.32337,43.62214],[-79.32385,43.62166],[-79.32406,43.62085],[-79.32423,43.61836],[-79.32353,43.61771],[-79.32354,43.61734],[-79.32405,43.61727],[-79.32531,43.61779],[-79.32682,43.61747],[-79.32723,43.61753],[-79.32726,43.61775],[-79.32703,43.61798],[-79.32631,43.61812],[-79.32565,43.61852],[-79.32505,43.61942],[-79.32516,43.62045],[-79.32481,43.62122],[-79.32483,43.62158],[-79.32548,43.62198],[-79.32603,43.62208],[-79.32838,43.62178],[-79.32864,43.62167],[-79.32866,43.62132],[-79.32679,43.62011],[-79.32671,43.61957],[-79.3272,43.61884],[-79.32772,43.61891],[-79.32797,43.61945],[-79.32825,43.61963],[-79.32952,43.62009],[-79.33186,43.62041],[-79.33389,43.62014],[-79.33455,43.61988],[-79.33499,43.61937],[-79.33607,43.61943],[-79.3371,43.61914],[-79.33895,43.61764],[-79.34095,43.61513],[-79.34162,43.61487],[-79.34206,43.61446],[-79.34281,43.61298],[-79.34343,43.61273],[-79.34412,43.61326],[-79.34369,43.61533],[-79.34377,43.61673],[-79.34478,43.61815],[-79.34467,43.61843],[-79.34358,43.61944],[-79.34338,43.62035],[-79.34394,43.62113],[-79.34505,43.62177],[-79.34427,43.62229],[-79.34329,43.62215],[-79.3431,43.6219],[-79.34332,43.62165],[-79.34298,43.62122],[-79.34281,43.62044],[-79.34285,43.61967],[-79.34213,43.61936],[-79.34123,43.6195],[-79.34044,43.61987],[-79.33975,43.62051],[-79.33965,43.62087],[-79.33976,43.62121],[-79.34103,43.62193],[-79.34114,43.62245],[-79.34224,43.62286],[-79.34283,43.62283],[-79.34315,43.62311],[-79.3432,43.62339],[-79.34288,43.62345],[-79.34238,43.62323],[-79.34188,43.6233],[-79.34018,43.62406],[-79.34051,43.62386],[-79.34045,43.62364],[-79.33961,43.62303],[-79.33888,43.62302],[-79.33903,43.6227],[-79.33891,43.62252],[-79.33907,43.62263],[-79.33917,43.62245],[-79.33893,43.62218],[-79.33867,43.62214],[-79.33775,43.62257],[-79.33737,43.62292],[-79.33737,43.62313],[-79.33722,43.62296],[-79.3369,43.62319],[-79.33726,43.62327],[-79.33745,43.62295],[-79.33767,43.623],[-79.33769,43.62317],[-79.33823,43.62314],[-79.3374,43.62386],[-79.33703,43.62484],[-79.33731,43.62592],[-79.33863,43.62815],[-79.33945,43.62924],[-79.33983,43.62922],[-79.33947,43.62939],[-79.33914,43.62937],[-79.33838,43.6289],[-79.33744,43.62902],[-79.33741,43.62802],[-79.33689,43.62751],[-79.3359,43.62757],[-79.33499,43.62743],[-79.33491,43.62708],[-79.33576,43.62635],[-79.33543,43.62569],[-79.33487,43.62525],[-79.33433,43.62516],[-79.33431,43.62598],[-79.33363,43.62572],[-79.33312,43.62593],[-79.33264,43.62591],[-79.33211,43.6262],[-79.33136,43.62581],[-79.33099,43.62613],[-79.33166,43.62667],[-79.33143,43.62694],[-79.33154,43.62724],[-79.33065,43.62815],[-79.32993,43.62839],[-79.32869,43.63038],[-79.32866,43.63067],[-79.32891,43.63094],[-79.33013,43.6313],[-79.33135,43.63126],[-79.33188,43.63054],[-79.33234,43.6304],[-79.33254,43.63016],[-79.33266,43.63024],[-79.33252,43.63058],[-79.33279,43.63069],[-79.33382,43.63043],[-79.33391,43.63021],[-79.33372,43.62966],[-79.33398,43.62942],[-79.33437,43.62941],[-79.33519,43.62973],[-79.33589,43.6294],[-79.33613,43.62909],[-79.33645,43.62933],[-79.33634,43.62992],[-79.3349,43.63088],[-79.33452,43.63163],[-79.33321,43.63159],[-79.33056,43.63278],[-79.32998,43.63285],[-79.32965,43.63301],[-79.32951,43.63369],[-79.32949,43.63318],[-79.32905,43.63346],[-79.32856,43.63317],[-79.32918,43.63249],[-79.32901,43.63209],[-79.32712,43.63167],[-79.32661,43.63187],[-79.32641,43.63266],[-79.32569,43.63344],[-79.32562,43.63422],[-79.32622,43.63457],[-79.32663,43.6346],[-79.32777,43.63427],[-79.32895,43.63344],[-79.32909,43.63363],[-79.32801,43.63441],[-79.32737,43.63456],[-79.32701,43.63489],[-79.32634,43.63499],[-79.3263,43.63518],[-79.32686,43.63525],[-79.32633,43.63529],[-79.32611,43.63566],[-79.32484,43.63617],[-79.3234,43.63753],[-79.32297,43.63828],[-79.32299,43.63898],[-79.3226,43.64047],[-79.32262,43.64121],[-79.32232,43.64156],[-79.32158,43.64472],[-79.32432,43.64521],[-79.32458,43.6444],[-79.32446,43.64425],[-79.32533,43.64227],[-79.3263,43.6408],[-79.32471,43.64007],[-79.32506,43.6399],[-79.32671,43.64043],[-79.32886,43.63811],[-79.32859,43.63767],[-79.32866,43.63748],[-79.32955,43.63706],[-79.32977,43.63749],[-79.33023,43.63789],[-79.33037,43.63844],[-79.33095,43.63874],[-79.33004,43.63899],[-79.32973,43.6394],[-79.32989,43.63979],[-79.32891,43.64011],[-79.32858,43.64056],[-79.32866,43.64086],[-79.32786,43.64107],[-79.32744,43.64154],[-79.32761,43.64214],[-79.32717,43.64256],[-79.32716,43.64328],[-79.32735,43.64355],[-79.32851,43.6443],[-79.32682,43.64398],[-79.32536,43.64563],[-79.32562,43.64664],[-79.3259,43.6469],[-79.32687,43.64685],[-79.32739,43.64705],[-79.32736,43.6473],[-79.32821,43.64764],[-79.32887,43.64741],[-79.33045,43.64659],[-79.33096,43.64588],[-79.33353,43.64395],[-79.33529,43.64227],[-79.33525,43.6421],[-79.33591,43.64168],[-79.33737,43.64034],[-79.33722,43.63991],[-79.33654,43.63947],[-79.33619,43.63942],[-79.33445,43.6405],[-79.33452,43.64029],[-79.33555,43.63968],[-79.3358,43.63938],[-79.3365,43.63918],[-79.33765,43.63943],[-79.34054,43.63917],[-79.34158,43.63841],[-79.3416,43.638],[-79.34315,43.63731],[-79.34551,43.63499],[-79.34691,43.63453],[-79.34704,43.63322],[-79.34965,43.63339],[-79.35985,43.6453],[-79.34765,43.65042],[-79.3473,43.65075],[-79.34952,43.65359],[-79.35421,43.65766],[-79.35751,43.66865],[-79.35797,43.66915],[-79.35959,43.67028],[-79.36053,43.67197],[-79.36157,43.67268],[-79.36301,43.67332],[-79.36288,43.6744],[-79.36299,43.67481],[-79.36496,43.67673],[-79.36483,43.67701],[-79.36411,43.67748],[-79.3636,43.67806],[-79.36373,43.6788],[-79.36611,43.68069],[-79.36634,43.68103],[-79.36637,43.6814],[-79.36583,43.68199],[-79.36465,43.68274],[-79.36339,43.68321],[-79.36185,43.68473],[-79.36165,43.68554],[-79.36173,43.68595],[-79.36238,43.6872],[-79.36256,43.68801],[-79.36139,43.68923],[-79.35994,43.69163],[-79.36006,43.69199],[-79.36125,43.69278],[-79.36176,43.69348],[-79.36185,43.69384],[-79.36167,43.69418],[-79.36065,43.69495],[-79.35924,43.69552],[-79.35766,43.69527],[-79.35693,43.69542],[-79.3562,43.69615],[-79.356,43.69706],[-79.35502,43.69805],[-79.35466,43.69823],[-79.3511,43.69887],[-79.35012,43.69986],[-79.34837,43.69993],[-79.34734,43.69915],[-79.34661,43.69895],[-79.34582,43.69848],[-79.34445,43.69826],[-79.34375,43.69849],[-79.34287,43.69902],[-79.34137,43.69946],[-79.34048,43.69999],[-79.33909,43.70126],[-79.33573,43.70308],[-79.33542,43.7032],[-79.33378,43.70302],[-79.33344,43.70307],[-79.33309,43.70337],[-79.33249,43.70327],[-79.33212,43.70304]]]]}},{"type":"Feature","properties":{"id":15,"name":"Don Valley West","lat":43.72185,"lng":-79.36785},"geometry":{"type":"MultiPolygon","coordinates":[[[[-79.35232,43.71573],[-79.35035,43.71578],[-79.34892,43.71631],[-79.3466,43.71606],[-79.34639,43.71591],[-79.34632,43.71543],[-79.34606,43.71515],[-79.34494,43.71522],[-79.34446,43.71455],[-79.34344,43.71408],[-79.34286,43.71335],[-79.3411,43.71269],[-79.33985,43.71301],[-79.33953,43.71279],[-79.33949,43.71249],[-79.34029,43.7117],[-79.34028,43.71137],[-79.34005,43.71105],[-79.33944,43.71071],[-79.33939,43.71014],[-79.33826,43.70952],[-79.33791,43.70888],[-79.33439,43.71],[-79.33384,43.70851],[-79.33369,43.70706],[-79.33416,43.70429],[-79.33469,43.70308],[-79.33542,43.7032],[-79.33659,43.70271],[-79.33725,43.70216],[-79.33909,43.70126],[-79.34048,43.69999],[-79.34137,43.69946],[-79.34287,43.69902],[-79.34433,43.69829],[-79.34582,43.69848],[-79.34661,43.69895],[-79.34734,43.69915],[-79.34837,43.69993],[-79.34904,43.7],[-79.35012,43.69986],[-79.3511,43.69887],[-79.35147,43.69873],[-79.35275,43.6986],[-79.35502,43.69805],[-79.356,43.69706],[-79.3562,43.69615],[-79.35693,43.69542],[-79.35766,43.69527],[-79.35884,43.69555],[-79.35963,43.69543],[-79.36065,43.69495],[-79.36167,43.69418],[-79.36185,43.69384],[-79.36155,43.69314],[-79.36125,43.69278],[-79.36006,43.69199],[-79.35994,43.69163],[-79.36168,43.68886],[-79.36217,43.68847],[-79.36246,43.68879],[-79.36289,43.68882],[-79.36311,43.68861],[-79.36323,43.68813],[-79.36358,43.68792],[-79.36378,43.68852],[-79.36367,43.6892],[-79.3632,43.68986],[-79.36231,43.69068],[-79.36199,43.69125],[-79.36194,43.69174],[-79.36211,43.69244],[-79.36258,43.693],[-79.36374,43.69357],[-79.36628,43.69409],[-79.36688,43.69435],[-79.37085,43.69063],[-79.37249,43.69136],[-79.37396,43.69236],[-79.37515,43.69282],[-79.3765,43.6931],[-79.38135,43.69509],[-79.38188,43.69466],[-79.38485,43.69403],[-79.38653,43.69833],[-79.38703,43.70051],[-79.39123,43.71113],[-79.399,43.70958],[-79.4022,43.7251],[-79.40453,43.73417],[-79.40712,43.74606],[-79.40811,43.74979],[-79.4081,43.7521],[-79.40839,43.75362],[-79.39846,43.75984],[-79.39585,43.76107],[-79.39332,43.76193],[-79.37974,43.76487],[-79.37634,43.76546],[-79.37179,43.76592],[-79.36293,43.76634],[-79.36232,43.76553],[-79.36197,43.76468],[-79.36188,43.76136],[-79.35688,43.73831],[-79.35527,43.73173],[-79.35461,43.73064],[-79.35223,43.72814],[-79.34976,43.726],[-79.34893,43.7246],[-79.34887,43.72318],[-79.35041,43.71865],[-79.35038,43.71794],[-79.34998,43.7171],[-79.35263,43.71623],[-79.35232,43.71573]]]]}},{"type":"Feature","properties":{"id":16,"name":"Don Valley East","lat":43.72858,"lng":-79.33703},"geometry":{"type":"MultiPolygon","coordinates":[[[[-79.31335,43.71699],[-79.32007,43.71556],[-79.32004,43.71479],[-79.32025,43.71461],[-79.32094,43.7145],[-79.32073,43.71406],[-79.32024,43.7139],[-79.32023,43.71368],[-79.32159,43.7126],[-79.32157,43.7124],[-79.32117,43.71223],[-79.31984,43.71258],[-79.31919,43.71244],[-79.31858,43.71151],[-79.31858,43.71122],[-79.31883,43.71099],[-79.3205,43.71038],[-79.32309,43.71021],[-79.32485,43.70957],[-79.32519,43.70882],[-79.3259,43.70832],[-79.32809,43.70795],[-79.32924,43.70724],[-79.33017,43.70636],[-79.33101,43.70633],[-79.33183,43.70607],[-79.33278,43.70531],[-79.33309,43.70337],[-79.33344,43.70307],[-79.33378,43.70302],[-79.33469,43.70308],[-79.33416,43.70429],[-79.33369,43.70706],[-79.33384,43.70851],[-79.33439,43.71],[-79.33791,43.70888],[-79.33826,43.70952],[-79.33939,43.71014],[-79.33944,43.71071],[-79.34005,43.71105],[-79.34028,43.71137],[-79.34029,43.7117],[-79.33949,43.71249],[-79.33953,43.71279],[-79.33985,43.71301],[-79.3411,43.71269],[-79.34286,43.71335],[-79.34344,43.71408],[-79.34446,43.71455],[-79.34494,43.71522],[-79.34606,43.71515],[-79.34632,43.71543],[-79.34639,43.71591],[-79.3466,43.71606],[-79.34892,43.71631],[-79.35035,43.71578],[-79.35232,43.71573],[-79.35263,43.71623],[-79.34998,43.7171],[-79.35038,43.71794],[-79.35041,43.71865],[-79.34887,43.72318],[-79.34893,43.7246],[-79.34976,43.726],[-79.35223,43.72814],[-79.35461,43.73064],[-79.35527,43.73173],[-79.35688,43.73831],[-79.36188,43.76136],[-79.36197,43.76468],[-79.36232,43.76553],[-79.36293,43.76634],[-79.35075,43.7669],[-79.32887,43.76822],[-79.31979,43.76836],[-79.31525,43.75787],[-79.30935,43.74092],[-79.30059,43.71979],[-79.31335,43.71699]]]]}},{"type":"Feature","properties":{"id":17,"name":"Don Valley North","lat":43.78162,"lng":-79.36017},"geometry":{"type":"MultiPolygon","coordinates":[[[[-79.38349,43.76408],[-79.38715,43.76331],[-79.38806,43.76659],[-79.39192,43.78387],[-79.39401,43.79415],[-79.39623,43.80327],[-79.37176,43.80865],[-79.34132,43.81565],[-79.33841,43.80875],[-79.33183,43.79402],[-79.31979,43.76836],[-79.32887,43.76822],[-79.35075,43.7669],[-79.37179,43.76592],[-79.37715,43.76534],[-79.38349,43.76408]]]]}},{"type":"Feature","properties":{"id":18,"name":"Willowdale","lat":43.76802,"lng":-79.41598},"geometry":{"type":"MultiPolygon","coordinates":[[[[-79.39449,43.76157],[-79.39684,43.76064],[-79.39887,43.7596],[-79.41145,43.75165],[-79.41193,43.7518],[-79.41393,43.75152],[-79.41524,43.75198],[-79.41569,43.75175],[-79.41594,43.75141],[-79.41618,43.75058],[-79.41764,43.74982],[-79.41926,43.74968],[-79.4204,43.74929],[-79.42229,43.74961],[-79.42347,43.75131],[-79.42608,43.75318],[-79.42806,43.75413],[-79.42833,43.75454],[-79.42854,43.7554],[-79.43031,43.75752],[-79.4308,43.75757],[-79.43298,43.75719],[-79.43369,43.75754],[-79.43369,43.75795],[-79.43461,43.75827],[-79.43526,43.75886],[-79.43655,43.75912],[-79.43771,43.75903],[-79.43814,43.7594],[-79.43811,43.75963],[-79.43761,43.7602],[-79.43766,43.76044],[-79.43784,43.76064],[-79.43833,43.76071],[-79.43874,43.76132],[-79.43934,43.76155],[-79.43998,43.76156],[-79.44663,43.78811],[-79.4466,43.78896],[-79.4454,43.79069],[-79.44576,43.79241],[-79.39623,43.80327],[-79.39401,43.79415],[-79.39192,43.78387],[-79.38806,43.76659],[-79.38715,43.76331],[-79.39225,43.76221],[-79.39449,43.76157]]]]}},{"type":"Feature","properties":{"id":19,"name":"Beaches-East York","lat":43.67134,"lng":-79.30186},"geometry":{"type":"MultiPolygon","coordinates":[[[[-79.29864,43.71515],[-79.29222,43.70011],[-79.29023,43.69598],[-79.28316,43.67864],[-79.2819,43.67834],[-79.27903,43.67167],[-79.27971,43.67108],[-79.28008,43.67115],[-79.28003,43.67102],[-79.28026,43.67084],[-79.28027,43.67101],[-79.2807,43.67102],[-79.28142,43.67033],[-79.28137,43.67061],[-79.28196,43.67072],[-79.28261,43.67033],[-79.28271,43.67021],[-79.28259,43.67009],[-79.28281,43.67013],[-79.28318,43.66984],[-79.283,43.67012],[-79.28344,43.67028],[-79.28431,43.67014],[-79.28499,43.66971],[-79.28509,43.66995],[-79.28559,43.66983],[-79.28675,43.66913],[-79.28685,43.6689],[-79.28672,43.66888],[-79.28726,43.66866],[-79.28701,43.66885],[-79.28723,43.66913],[-79.28799,43.66913],[-79.28859,43.66864],[-79.28912,43.66852],[-79.2893,43.66829],[-79.28911,43.6682],[-79.28958,43.668],[-79.28948,43.66814],[-79.28967,43.66858],[-79.29055,43.66841],[-79.29145,43.66797],[-79.29163,43.6677],[-79.29217,43.66776],[-79.29273,43.6673],[-79.29363,43.66723],[-79.29454,43.66638],[-79.29469,43.66605],[-79.29475,43.66621],[-79.29511,43.66627],[-79.29529,43.66608],[-79.29507,43.66598],[-79.29688,43.66536],[-79.29801,43.66526],[-79.2984,43.66552],[-79.29899,43.66547],[-79.29942,43.66566],[-79.30135,43.66518],[-79.30206,43.66476],[-79.30248,43.66494],[-79.30307,43.66457],[-79.3033,43.6646],[-79.3053,43.66265],[-79.3064,43.66072],[-79.30627,43.66038],[-79.30547,43.66032],[-79.30497,43.65986],[-79.30527,43.6594],[-79.30561,43.65934],[-79.30612,43.65856],[-79.30597,43.65793],[-79.30506,43.65701],[-79.30503,43.65664],[-79.30539,43.65644],[-79.30689,43.65658],[-79.30769,43.65619],[-79.30832,43.65526],[-79.30835,43.65436],[-79.30862,43.65416],[-79.3094,43.65525],[-79.31009,43.65544],[-79.31037,43.65518],[-79.31086,43.65522],[-79.31121,43.65547],[-79.31121,43.65585],[-79.3109,43.65605],[-79.31015,43.65614],[-79.30909,43.65591],[-79.30854,43.65597],[-79.30788,43.65669],[-79.30688,43.6569],[-79.30686,43.65719],[-79.3076,43.65772],[-79.30939,43.65823],[-79.30956,43.65826],[-79.30972,43.65807],[-79.31034,43.6584],[-79.31092,43.65793],[-79.3112,43.65726],[-79.31023,43.65693],[-79.31042,43.65669],[-79.31075,43.65662],[-79.31108,43.65684],[-79.31164,43.65692],[-79.31229,43.65674],[-79.31264,43.65698],[-79.31196,43.65753],[-79.31174,43.65754],[-79.31167,43.65778],[-79.31184,43.65796],[-79.3117,43.65834],[-79.31181,43.65857],[-79.31193,43.65853],[-79.31204,43.65875],[-79.31194,43.65879],[-79.31215,43.65885],[-79.31187,43.65901],[-79.31198,43.65908],[-79.31219,43.65891],[-79.3124,43.65907],[-79.31214,43.65923],[-79.31247,43.65912],[-79.31266,43.65927],[-79.31242,43.65944],[-79.31265,43.65941],[-79.31297,43.65965],[-79.31441,43.66092],[-79.31399,43.66108],[-79.31404,43.66119],[-79.3134,43.66132],[-79.31336,43.66165],[-79.31435,43.66162],[-79.31437,43.66176],[-79.31492,43.66197],[-79.31487,43.66227],[-79.32878,43.69594],[-79.3296,43.69827],[-79.3271,43.7015],[-79.32965,43.70167],[-79.33029,43.70157],[-79.33161,43.70176],[-79.33182,43.70199],[-79.33212,43.70304],[-79.33249,43.70327],[-79.33309,43.70337],[-79.33297,43.70456],[-79.33278,43.70531],[-79.33221,43.70585],[-79.33142,43.70626],[-79.33017,43.70636],[-79.32924,43.70724],[-79.32809,43.70795],[-79.3259,43.70832],[-79.32519,43.70882],[-79.32485,43.70957],[-79.32309,43.71021],[-79.3205,43.71038],[-79.31883,43.71099],[-79.31858,43.71122],[-79.31858,43.71151],[-79.31919,43.71244],[-79.31984,43.71258],[-79.32117,43.71223],[-79.32157,43.7124],[-79.32159,43.7126],[-79.32023,43.71368],[-79.32024,43.7139],[-79.32073,43.71406],[-79.32094,43.7145],[-79.32025,43.71461],[-79.32004,43.71479],[-79.32007,43.71556],[-79.30059,43.71979],[-79.29864,43.71515]]]]}},{"type":"Feature","properties":{"id":20,"name":"Scarborough Southwest","lat":43.7029,"lng":-79.24221},"geometry":{"type":"MultiPolygon","coordinates":[[[[-79.27903,43.67167],[-79.2819,43.67834],[-79.28316,43.67864],[-79.29023,43.69598],[-79.29222,43.70011],[-79.29599,43.70878],[-79.30265,43.72472],[-79.30029,43.72502],[-79.27596,43.73037],[-79.25917,43.73431],[-79.21891,43.74318],[-79.21476,43.73337],[-79.21276,43.72809],[-79.21328,43.7274],[-79.2131,43.72735],[-79.21397,43.72676],[-79.21391,43.72619],[-79.21407,43.72613],[-79.21401,43.72637],[-79.21425,43.72634],[-79.21474,43.72596],[-79.21503,43.72521],[-79.21474,43.72513],[-79.21525,43.72466],[-79.21534,43.72472],[-79.21513,43.72493],[-79.21555,43.72497],[-79.21609,43.7245],[-79.21637,43.72383],[-79.21623,43.72363],[-79.21608,43.72378],[-79.21597,43.7237],[-79.21649,43.72322],[-79.2166,43.72329],[-79.21643,43.72345],[-79.21666,43.72349],[-79.21708,43.72316],[-79.21745,43.72228],[-79.21736,43.72211],[-79.21719,43.72225],[-79.21712,43.72214],[-79.21765,43.72168],[-79.21805,43.72193],[-79.21824,43.72182],[-79.21819,43.72199],[-79.21877,43.72225],[-79.21919,43.72206],[-79.22165,43.72011],[-79.22355,43.71803],[-79.22534,43.71457],[-79.22597,43.71289],[-79.22601,43.71269],[-79.22521,43.7124],[-79.2253,43.71222],[-79.22559,43.71218],[-79.22578,43.7117],[-79.22502,43.71105],[-79.22516,43.71081],[-79.22568,43.71062],[-79.22651,43.70882],[-79.22639,43.70851],[-79.22587,43.70816],[-79.22604,43.70731],[-79.22629,43.70731],[-79.22652,43.70805],[-79.22787,43.7081],[-79.22807,43.70824],[-79.22801,43.70842],[-79.2271,43.70888],[-79.22675,43.70974],[-79.22631,43.71119],[-79.22652,43.71224],[-79.22667,43.7124],[-79.22828,43.71266],[-79.2295,43.71253],[-79.23004,43.71211],[-79.23059,43.71135],[-79.23038,43.71073],[-79.23001,43.71034],[-79.2292,43.71041],[-79.22917,43.71174],[-79.22821,43.71178],[-79.22723,43.71159],[-79.22731,43.7112],[-79.22823,43.71093],[-79.22804,43.71092],[-79.22803,43.71053],[-79.2283,43.70997],[-79.22781,43.70963],[-79.2279,43.70935],[-79.22821,43.70928],[-79.22903,43.70965],[-79.22962,43.70927],[-79.22956,43.70906],[-79.22915,43.7088],[-79.22869,43.70904],[-79.22845,43.709],[-79.22844,43.70877],[-79.22883,43.70871],[-79.22931,43.70838],[-79.22953,43.70771],[-79.2298,43.70777],[-79.2299,43.70848],[-79.23099,43.70879],[-79.23135,43.70845],[-79.2318,43.70844],[-79.23184,43.70863],[-79.23136,43.7095],[-79.23027,43.70992],[-79.23007,43.71026],[-79.23074,43.71055],[-79.23132,43.71056],[-79.23242,43.70993],[-79.23308,43.70926],[-79.23298,43.70904],[-79.23333,43.70835],[-79.23316,43.70827],[-79.23344,43.70759],[-79.23182,43.7067],[-79.23109,43.70662],[-79.23108,43.70642],[-79.22982,43.70587],[-79.22951,43.70597],[-79.22866,43.70708],[-79.22862,43.70742],[-79.22759,43.70738],[-79.22767,43.70713],[-79.2284,43.70695],[-79.22915,43.70585],[-79.22924,43.70553],[-79.2289,43.70497],[-79.22894,43.70475],[-79.22918,43.70468],[-79.22995,43.70512],[-79.23105,43.70536],[-79.23155,43.7053],[-79.23209,43.70485],[-79.23231,43.70487],[-79.23234,43.70518],[-79.23256,43.70529],[-79.23327,43.7053],[-79.23326,43.70551],[-79.23296,43.70565],[-79.23311,43.70587],[-79.23285,43.70609],[-79.23264,43.70668],[-79.23314,43.70693],[-79.23342,43.70677],[-79.23375,43.70692],[-79.23384,43.70686],[-79.23371,43.70676],[-79.23389,43.70663],[-79.23412,43.70668],[-79.23393,43.70642],[-79.23434,43.70636],[-79.23357,43.70582],[-79.23391,43.70539],[-79.23412,43.70543],[-79.23578,43.70449],[-79.23654,43.70328],[-79.23657,43.70284],[-79.2364,43.70241],[-79.23542,43.70173],[-79.2356,43.70129],[-79.23612,43.7012],[-79.23639,43.70131],[-79.23693,43.70199],[-79.23752,43.70232],[-79.23812,43.70224],[-79.23861,43.7019],[-79.23915,43.70205],[-79.23912,43.70243],[-79.23826,43.70256],[-79.23785,43.70299],[-79.23793,43.70321],[-79.23764,43.70316],[-79.23748,43.7036],[-79.23675,43.70419],[-79.23666,43.70463],[-79.23725,43.70505],[-79.23804,43.70486],[-79.23853,43.7047],[-79.23849,43.70443],[-79.23758,43.70424],[-79.23864,43.70427],[-79.2393,43.70402],[-79.23955,43.70378],[-79.23805,43.70327],[-79.23799,43.70296],[-79.23844,43.70258],[-79.23904,43.703],[-79.2399,43.70317],[-79.24082,43.70309],[-79.24159,43.70282],[-79.24321,43.70184],[-79.2439,43.70088],[-79.24387,43.70039],[-79.24671,43.69898],[-79.24823,43.69843],[-79.24836,43.69828],[-79.2482,43.69805],[-79.2485,43.69833],[-79.24887,43.69823],[-79.24923,43.69796],[-79.2491,43.69772],[-79.24935,43.69797],[-79.24964,43.69791],[-79.25007,43.6976],[-79.24994,43.69734],[-79.25019,43.6975],[-79.25166,43.69674],[-79.25315,43.69632],[-79.25344,43.69601],[-79.25334,43.69577],[-79.25367,43.69597],[-79.25568,43.69502],[-79.2563,43.69427],[-79.25624,43.6941],[-79.25655,43.69425],[-79.25685,43.69413],[-79.25715,43.69364],[-79.25704,43.6934],[-79.25744,43.69358],[-79.25782,43.69339],[-79.25812,43.69289],[-79.25789,43.69265],[-79.25828,43.69275],[-79.2586,43.69254],[-79.25882,43.69199],[-79.25857,43.69182],[-79.25911,43.6919],[-79.2594,43.69147],[-79.25942,43.69127],[-79.25907,43.69109],[-79.2596,43.69121],[-79.25993,43.69081],[-79.25997,43.69059],[-79.25966,43.6904],[-79.26018,43.69043],[-79.26052,43.68983],[-79.2604,43.68972],[-79.26081,43.68983],[-79.26365,43.68675],[-79.26656,43.68458],[-79.26683,43.68383],[-79.26728,43.68388],[-79.26763,43.68329],[-79.26753,43.68317],[-79.26788,43.68327],[-79.2682,43.6825],[-79.26839,43.68256],[-79.26903,43.6821],[-79.26977,43.68085],[-79.2697,43.68075],[-79.27006,43.68087],[-79.27028,43.68075],[-79.27065,43.67974],[-79.27117,43.67989],[-79.2714,43.67974],[-79.27192,43.67864],[-79.2718,43.67851],[-79.27231,43.67872],[-79.27268,43.67854],[-79.27328,43.6774],[-79.27335,43.67721],[-79.27316,43.67706],[-79.27368,43.67712],[-79.27424,43.67629],[-79.27403,43.67607],[-79.27449,43.67621],[-79.27479,43.67595],[-79.27509,43.67533],[-79.27485,43.67509],[-79.27531,43.67523],[-79.27559,43.67506],[-79.27593,43.67437],[-79.27569,43.67409],[-79.27615,43.6742],[-79.27648,43.67406],[-79.27689,43.67326],[-79.27735,43.67287],[-79.27766,43.67213],[-79.27755,43.67194],[-79.27837,43.67218],[-79.27903,43.67167]]]]}},{"type":"Feature","properties":{"id":21,"name":"Scarborough Centre","lat":43.75714,"lng":-79.28036},"geometry":{"type":"MultiPolygon","coordinates":[[[[-79.25021,43.76864],[-79.24564,43.75687],[-79.24542,43.75555],[-79.23527,43.75772],[-79.23524,43.75642],[-79.22867,43.74102],[-79.25917,43.73431],[-79.27596,43.73037],[-79.29941,43.7252],[-79.3023,43.72471],[-79.30265,43.72472],[-79.30935,43.74092],[-79.31525,43.75787],[-79.31979,43.76836],[-79.31454,43.76845],[-79.31054,43.76899],[-79.27469,43.7773],[-79.25498,43.78122],[-79.25187,43.77365],[-79.25133,43.7716],[-79.25021,43.76864]]]]}},{"type":"Feature","properties":{"id":22,"name":"Scarborough-Agincourt","lat":43.79036,"lng":-79.30694},"geometry":{"type":"MultiPolygon","coordinates":[[[[-79.31645,43.76838],[-79.31979,43.76836],[-79.33183,43.79402],[-79.33841,43.80875],[-79.34132,43.81565],[-79.29733,43.82595],[-79.2888,43.80705],[-79.28662,43.80446],[-79.27837,43.78481],[-79.27697,43.78266],[-79.27478,43.77728],[-79.30991,43.76912],[-79.31319,43.76857],[-79.31645,43.76838]]]]}},{"type":"Feature","properties":{"id":23,"name":"Scarborough North","lat":43.80823,"lng":-79.24184},"geometry":{"type":"MultiPolygon","coordinates":[[[[-79.22591,43.8396],[-79.22388,43.83923],[-79.2228,43.83871],[-79.22263,43.83846],[-79.22285,43.83754],[-79.22183,43.83652],[-79.22398,43.83531],[-79.22408,43.83471],[-79.22364,43.83377],[-79.22148,43.8323],[-79.21915,43.83243],[-79.21865,43.83192],[-79.21831,43.8313],[-79.21835,43.831],[-79.21752,43.83038],[-79.2323,43.82573],[-79.2314,43.82398],[-79.23014,43.82303],[-79.23059,43.82249],[-79.23054,43.82175],[-79.22902,43.81828],[-79.22766,43.81663],[-79.22532,43.81142],[-79.22421,43.81039],[-79.22125,43.809],[-79.22014,43.80831],[-79.21953,43.80771],[-79.21737,43.80475],[-79.21717,43.80403],[-79.21721,43.80344],[-79.21825,43.80114],[-79.21835,43.80002],[-79.21781,43.79845],[-79.21572,43.79368],[-79.21824,43.79294],[-79.22056,43.79202],[-79.22204,43.79131],[-79.226,43.78899],[-79.22816,43.78798],[-79.23462,43.78578],[-79.24046,43.7842],[-79.24644,43.78285],[-79.27478,43.77728],[-79.27697,43.78266],[-79.27837,43.78481],[-79.28662,43.80446],[-79.2888,43.80705],[-79.29733,43.82595],[-79.22781,43.84209],[-79.22692,43.84133],[-79.22618,43.83981],[-79.22591,43.8396]]]]}},{"type":"Feature","properties":{"id":24,"name":"Scarborough-Guildwood","lat":43.75249,"lng":-79.20778},"geometry":{"type":"MultiPolygon","coordinates":[[[[-79.18192,43.75809],[-79.1792,43.75188],[-79.17963,43.75177],[-79.18003,43.75133],[-79.18049,43.75134],[-79.18071,43.7511],[-79.18061,43.75092],[-79.18558,43.7483],[-79.18623,43.7477],[-79.18709,43.74741],[-79.18804,43.74684],[-79.18823,43.74695],[-79.18784,43.74713],[-79.18769,43.74737],[-79.18869,43.74685],[-79.18952,43.74617],[-79.18949,43.74598],[-79.19045,43.74541],[-79.19407,43.74257],[-79.19522,43.74139],[-79.19584,43.74123],[-79.19754,43.73914],[-79.19946,43.73778],[-79.20238,43.73573],[-79.20524,43.73484],[-79.20569,43.73455],[-79.20576,43.73424],[-79.2062,43.73431],[-79.2066,43.73403],[-79.20686,43.73367],[-79.20684,43.73338],[-79.20759,43.73335],[-79.20797,43.73295],[-79.20782,43.7326],[-79.20844,43.73248],[-79.20891,43.73207],[-79.20888,43.73165],[-79.20934,43.73165],[-79.20995,43.7313],[-79.21016,43.73093],[-79.20978,43.73062],[-79.20981,43.73045],[-79.21012,43.73041],[-79.21031,43.73013],[-79.21111,43.72995],[-79.21143,43.72957],[-79.21142,43.72934],[-79.21196,43.72918],[-79.2123,43.72887],[-79.21276,43.72809],[-79.21476,43.73337],[-79.21891,43.74318],[-79.22867,43.74102],[-79.23524,43.75642],[-79.23527,43.75772],[-79.24542,43.75555],[-79.24564,43.75687],[-79.25076,43.77005],[-79.25187,43.77365],[-79.25498,43.78122],[-79.24644,43.78285],[-79.24046,43.7842],[-79.23188,43.78664],[-79.22685,43.78856],[-79.22056,43.79202],[-79.21635,43.79352],[-79.2134,43.79414],[-79.19701,43.79652],[-79.19588,43.79281],[-79.19377,43.78799],[-79.19352,43.78565],[-79.18987,43.7771],[-79.18913,43.77579],[-79.18687,43.77061],[-79.18634,43.76924],[-79.18592,43.76725],[-79.18192,43.75809]]]]}},{"type":"Feature","properties":{"id":25,"name":"Scarborough-Rouge Park","lat":43.78861,"lng":-79.15705},"geometry":{"type":"MultiPolygon","coordinates":[[[[-79.16478,43.84333],[-79.1528,43.81672],[-79.15216,43.81469],[-79.15174,43.81398],[-79.15123,43.81388],[-79.14947,43.81248],[-79.14823,43.81232],[-79.14667,43.81134],[-79.14613,43.81084],[-79.14613,43.81059],[-79.1464,43.81048],[-79.1461,43.81007],[-79.14364,43.81006],[-79.14346,43.81025],[-79.14343,43.81062],[-79.14314,43.81072],[-79.14288,43.81008],[-79.14311,43.80989],[-79.14315,43.80963],[-79.14246,43.80945],[-79.14197,43.80964],[-79.14124,43.80891],[-79.1407,43.80878],[-79.14064,43.80845],[-79.13933,43.80835],[-79.13895,43.80799],[-79.13841,43.80796],[-79.13816,43.80749],[-79.13788,43.8075],[-79.13761,43.80786],[-79.13705,43.80771],[-79.13626,43.80807],[-79.13589,43.80804],[-79.1341,43.80686],[-79.13391,43.80621],[-79.1343,43.80522],[-79.13439,43.80443],[-79.13369,43.80327],[-79.13367,43.80296],[-79.13418,43.80222],[-79.13541,43.80108],[-79.13543,43.80083],[-79.13526,43.80067],[-79.13427,43.80087],[-79.13216,43.80163],[-79.13103,43.80178],[-79.12986,43.80145],[-79.12768,43.80029],[-79.12518,43.80013],[-79.1246,43.79964],[-79.12423,43.79901],[-79.12436,43.79773],[-79.12423,43.79743],[-79.12347,43.79718],[-79.12193,43.7974],[-79.12117,43.79702],[-79.12031,43.79615],[-79.12018,43.79586],[-79.12027,43.79562],[-79.12123,43.7952],[-79.121,43.79474],[-79.11932,43.7948],[-79.11774,43.79435],[-79.11714,43.79437],[-79.11602,43.79479],[-79.11545,43.79456],[-79.11702,43.79425],[-79.11695,43.79417],[-79.11994,43.79143],[-79.12043,43.79057],[-79.12009,43.79022],[-79.11979,43.79035],[-79.12021,43.78978],[-79.1204,43.78993],[-79.12083,43.78962],[-79.12104,43.78915],[-79.12096,43.78894],[-79.12075,43.78897],[-79.12118,43.78849],[-79.1215,43.7886],[-79.12194,43.78813],[-79.12201,43.78781],[-79.12191,43.78768],[-79.12169,43.78772],[-79.12219,43.78726],[-79.12248,43.7874],[-79.12279,43.78723],[-79.1231,43.7866],[-79.12284,43.78647],[-79.12328,43.78607],[-79.12349,43.7862],[-79.12375,43.78603],[-79.124,43.78557],[-79.12399,43.78541],[-79.12376,43.78541],[-79.12411,43.78496],[-79.1242,43.78516],[-79.12463,43.78496],[-79.12494,43.78437],[-79.12487,43.78415],[-79.12459,43.78426],[-79.12511,43.78377],[-79.12513,43.78396],[-79.1255,43.78396],[-79.12611,43.78353],[-79.12677,43.78273],[-79.12688,43.78244],[-79.12669,43.7822],[-79.12724,43.78207],[-79.12802,43.78123],[-79.12821,43.78075],[-79.12864,43.78078],[-79.12915,43.78046],[-79.13089,43.77848],[-79.13213,43.77748],[-79.13275,43.77671],[-79.13272,43.77648],[-79.13302,43.77651],[-79.13387,43.77576],[-79.13405,43.77548],[-79.13377,43.77532],[-79.13373,43.77512],[-79.13409,43.77477],[-79.13399,43.77422],[-79.13409,43.77401],[-79.13451,43.77387],[-79.13482,43.77416],[-79.13525,43.77408],[-79.13587,43.77337],[-79.13582,43.77309],[-79.13557,43.77312],[-79.13596,43.7727],[-79.13608,43.77272],[-79.13599,43.77284],[-79.13643,43.77287],[-79.13695,43.77245],[-79.13725,43.77189],[-79.13694,43.77177],[-79.13735,43.77134],[-79.13748,43.77136],[-79.13734,43.77152],[-79.13779,43.7716],[-79.13832,43.7713],[-79.1386,43.77081],[-79.13843,43.77062],[-79.1382,43.77067],[-79.13879,43.7701],[-79.13894,43.77011],[-79.13867,43.77039],[-79.13879,43.7705],[-79.14005,43.76998],[-79.1406,43.76919],[-79.14029,43.76916],[-79.14089,43.76868],[-79.14097,43.76875],[-79.14074,43.76894],[-79.141,43.76909],[-79.142,43.7689],[-79.14447,43.76676],[-79.14559,43.76602],[-79.14641,43.76574],[-79.14862,43.76355],[-79.15175,43.75996],[-79.15323,43.7591],[-79.15572,43.75912],[-79.15898,43.75869],[-79.16335,43.75753],[-79.16728,43.75683],[-79.17507,43.75408],[-79.1773,43.75282],[-79.17729,43.75269],[-79.17788,43.75263],[-79.17828,43.75229],[-79.17867,43.75239],[-79.17923,43.75202],[-79.1792,43.75188],[-79.18592,43.76725],[-79.18634,43.76924],[-79.18687,43.77061],[-79.18913,43.77579],[-79.18987,43.7771],[-79.19352,43.78565],[-79.19377,43.78799],[-79.19588,43.79281],[-79.19701,43.79652],[-79.2134,43.79414],[-79.21572,43.79368],[-79.21781,43.79845],[-79.21835,43.80002],[-79.21825,43.80114],[-79.21721,43.80344],[-79.21717,43.80403],[-79.21737,43.80475],[-79.21953,43.80771],[-79.22014,43.80831],[-79.22125,43.809],[-79.22421,43.81039],[-79.22532,43.81142],[-79.22766,43.81663],[-79.22902,43.81828],[-79.23054,43.82175],[-79.23059,43.82249],[-79.23014,43.82303],[-79.2314,43.82398],[-79.2323,43.82573],[-79.21752,43.83038],[-79.21835,43.831],[-79.21831,43.8313],[-79.21865,43.83192],[-79.21915,43.83243],[-79.22148,43.8323],[-79.22364,43.83377],[-79.22408,43.83471],[-79.22398,43.83531],[-79.22183,43.83652],[-79.22285,43.83754],[-79.22263,43.83846],[-79.2228,43.83871],[-79.22388,43.83923],[-79.22591,43.8396],[-79.22618,43.83981],[-79.22692,43.84133],[-79.22781,43.84209],[-79.2045,43.84725],[-79.17029,43.85546],[-79.16478,43.84333]]]]}}]}